TRANSPORTER-10 OBJECT AG
1 59128U 24043AG  26068.92552531  .00009498  00000+0  32170-3 0  9997
2 59128  97.5471 205.7101 0009300 226.5958 133.4509 15.30759727111920
STARLINK-34617          
1 65015U 25161A   26068.93315696  .00027845  00000+0  94902-3 0  9998
2 65015  53.1597 293.3241 0001310 156.9847 203.1213 15.30189867 34263
